{
    "links": {
        "self": "http://www.neowsapp.com/rest/v1/neo/3568337?api_key=iIulBulltgU6a56xZRHN4H3l9WmuAYTsLGpBGhQ2"
    },
    "id": "3568337",
    "neo_reference_id": "3568337",
    "name": "(2011 MD2)",
    "designation": "2011 MD2",
    "nasa_jpl_url": "http://ssd.jpl.nasa.gov/sbdb.cgi?sstr=3568337",
    "absolute_magnitude_h": 23.5,
    "estimated_diameter": {
        "kilometers": {
            "estimated_diameter_min": 0.0530340723,
            "estimated_diameter_max": 0.1185877909
        },
        "meters": {
            "estimated_diameter_min": 53.0340723319,
            "estimated_diameter_max": 118.5877908577
        },
        "miles": {
            "estimated_diameter_min": 0.0329538346,
            "estimated_diameter_max": 0.0736870142
        },
        "feet": {
            "estimated_diameter_min": 173.9963058693,
            "estimated_diameter_max": 389.0675677576
        }
    },
    "is_potentially_hazardous_asteroid": false,
    "close_approach_data": [
        {
            "close_approach_date": "2011-06-13",
            "close_approach_date_full": "2011-Jun-13 04:10",
            "epoch_date_close_approach": 1307938200000,
            "relative_velocity": {
                "kilometers_per_second": "9.0249966386",
                "kilometers_per_hour": "32489.9878989242",
                "miles_per_hour": "20188.0149808621"
            },
            "miss_distance": {
                "astronomical": "0.1062816476",
                "lunar": "41.3435609164",
                "kilometers": "15899508.101050612",
                "miles": "9879496.2156659656"
            },
            "orbiting_body": "Earth"
        }
    ],
    "orbital_data": {
        "orbit_id": "5",
        "orbit_determination_date": "2017-04-06 08:53:14",
        "first_observation_date": "2011-06-25",
        "last_observation_date": "2011-06-27",
        "data_arc_in_days": 2,
        "observations_used": 19,
        "orbit_uncertainty": "9",
        "minimum_orbit_intersection": ".0845225",
        "jupiter_tisserand_invariant": "3.649",
        "epoch_osculation": "2455738.5",
        "eccentricity": ".4763105191908713",
        "semi_major_axis": "2.030568167605143",
        "inclination": "8.539862883467398",
        "ascending_node_longitude": "93.02936786337513",
        "orbital_period": "1056.877828737143",
        "perihelion_distance": "1.063387189440681",
        "perihelion_argument": "142.1204744258156",
        "aphelion_distance": "2.997749145769605",
        "perihelion_time": "2455704.283206676340",
        "mean_anomaly": "11.65512726408157",
        "mean_motion": ".3406259363299938",
        "equinox": "J2000",
        "orbit_class": {
            "orbit_class_type": "AMO",
            "orbit_class_description": "Near-Earth asteroid orbits similar to that of 1221 Amor",
            "orbit_class_range": "1.017 AU < q (perihelion) < 1.3 AU"
        }
    },
    "is_sentry_object": false
}